norad_id,name,regime,epoch,line1,line2,inclination,eccentricity,mean_motion,raan,arg_pericenter,mean_anomaly
19789,COSMOS 1998,LEO,25002.26291089,1 19789U 89009E   25002.26291089  .00000057  00000-0  24998-3 0    17,2 19789  82.6129 310.3980 0017085  52.5113 307.7530 12.64913840656893,82.6129,0.0017085,12.6491384,310.398,52.5113,307.753
19789,COSMOS 1998,LEO,25003.13297056,1 19789U 89009E   25003.13297056  .00000017  00000-0  35941-4 0  2259,2 19789  82.6130 309.8427 0017088  50.6572 309.6032 12.64913476657181,82.613,0.0017088,12.64913476,309.8427,50.6572,309.6032
19789,COSMOS 1998,LEO,25003.52845129,1 19789U 89009E   25003.52845129  .00000048  00000-0  19927-3 0    13,2 19789  82.6130 309.5902 0017052  49.7662 310.4919 12.64913793657058,82.613,0.0017052,12.64913793,309.5902,49.7662,310.4919
19789,COSMOS 1998,LEO,25004.31941401,1 19789U 89009E   25004.31941401  .00000045  00000-0  18525-3 0    11,2 19789  82.6130 309.0854 0017030  48.0390 312.2150 12.64913797657157,82.613,0.001703,12.64913797,309.0854,48.039,312.215
19789,COSMOS 1998,LEO,25004.79399156,1 19789U 89009E   25004.79399156  .00000044  00000-0  17768-3 0    14,2 19789  82.6130 308.7824 0017020  47.0130 313.2386 12.64913826657212,82.613,0.001702,12.64913826,308.7824,47.013,313.2386
19789,COSMOS 1998,LEO,25005.26856906,1 19789U 89009E   25005.26856906  .00000049  00000-0  20818-3 0    13,2 19789  82.6131 308.4795 0017015  45.9913 314.2578 12.64913887657274,82.6131,0.0017015,12.64913887,308.4795,45.9913,314.2578
19789,COSMOS 1998,LEO,25005.82224274,1 19789U 89009E   25005.82224274  .00000047  00000-0  19305-3 0    19,2 19789  82.6131 308.1261 0016996  44.7801 315.4660 12.64913923657343,82.6131,0.0016996,12.64913923,308.1261,44.7801,315.466
19789,COSMOS 1998,LEO,25006.29682021,1 19789U 89009E   25006.29682021  .00000044  00000-0  17989-3 0    12,2 19789  82.6132 307.8232 0016987  43.7507 316.4929 12.64913937657401,82.6132,0.0016987,12.64913937,307.8232,43.7507,316.4929
19789,COSMOS 1998,LEO,25006.85049384,1 19789U 89009E   25006.85049384  .00000038  00000-0  14467-3 0    14,2 19789  82.6132 307.4698 0016976  42.5465 317.6939 12.64913971657470,82.6132,0.0016976,12.64913971,307.4698,42.5465,317.6939
19789,COSMOS 1998,LEO,25007.32507123,1 19789U 89009E   25007.32507123  .00000036  00000-0  13678-3 0  2278,2 19789  82.6133 307.1669 0016968  41.5076 318.7302 12.64914010657712,82.6133,0.0016968,12.6491401,307.1669,41.5076,318.7302
19789,COSMOS 1998,LEO,25007.56235994,1 19789U 89009E   25007.56235994  .00000035  00000-0  12962-3 0    12,2 19789  82.6133 307.0155 0016963  40.9967 319.2398 12.64914014657566,82.6133,0.0016963,12.64914014,307.0155,40.9967,319.2398
19789,COSMOS 1998,LEO,25008.51151469,1 19789U 89009E   25008.51151469  .00000029  00000-0  98987-4 0    17,2 19789  82.6132 306.4097 0016947  38.9708 321.2603 12.64914049657688,82.6132,0.0016947,12.64914049,306.4097,38.9708,321.2603
19789,COSMOS 1998,LEO,25008.90699579,1 19789U 89009E   25008.90699579  .00000025  00000-0  75180-4 0    15,2 19789  82.6132 306.1573 0016936  38.1143 322.1144 12.64914072657739,82.6132,0.0016936,12.64914072,306.1573,38.1143,322.1144
19789,COSMOS 1998,LEO,25009.22338064,1 19789U 89009E   25009.22338064  .00000031  00000-0  10979-3 0    11,2 19789  82.6131 305.9553 0016925  37.4365 322.7904 12.64914135657773,82.6131,0.0016925,12.64914135,305.9553,37.4365,322.7904
19789,COSMOS 1998,LEO,25009.77705418,1 19789U 89009E   25009.77705418  .00000021  00000-0  56814-4 0  2281,2 19789  82.6131 305.6020 0016908  36.2289 323.9946 12.64914136658021,82.6131,0.0016908,12.64914136,305.602,36.2289,323.9946
19789,COSMOS 1998,LEO,25009.85615036,1 19789U 89009E   25009.85615036  .00000022  00000-0  61600-4 0    15,2 19789  82.6131 305.5515 0016905  36.0526 324.1703 12.64914156657854,82.6131,0.0016905,12.64914156,305.5515,36.0526,324.1703
19789,COSMOS 1998,LEO,25010.56801638,1 19789U 89009E   25010.56801638  .00000016  00000-0  30320-4 0    18,2 19789  82.6131 305.0971 0016882  34.4983 325.7202 12.64914119657948,82.6131,0.0016882,12.64914119,305.0971,34.4983,325.7202
19789,COSMOS 1998,LEO,25011.27988231,1 19789U 89009E   25011.27988231  .00000014  00000-0  19001-4 0    13,2 19789  82.6131 304.6428 0016858  32.9380 327.2760 12.64914139658036,82.6131,0.0016858,12.64914139,304.6428,32.938,327.276
19789,COSMOS 1998,LEO,25011.83355582,1 19789U 89009E   25011.83355582  .00000013  00000-0  93846-5 0    11,2 19789  82.6131 304.2895 0016844  31.7395 328.4709 12.64914156658101,82.6131,0.0016844,12.64914156,304.2895,31.7395,328.4709
19789,COSMOS 1998,LEO,25012.30813315,1 19789U 89009E   25012.30813315  .00000013  00000-0  99765-5 0    13,2 19789  82.6131 303.9866 0016829  30.7014 329.5060 12.64914144658160,82.6131,0.0016829,12.64914144,303.9866,30.7014,329.506
19789,COSMOS 1998,LEO,25012.86180667,1 19789U 89009E   25012.86180667  .00000015  00000-0  20610-4 0    15,2 19789  82.6132 303.6332 0016814  29.5020 330.7018 12.64914147658231,82.6132,0.0016814,12.64914147,303.6332,29.502,330.7018
19789,COSMOS 1998,LEO,25013.25728772,1 19789U 89009E   25013.25728772  .00000020  00000-0  50393-4 0    11,2 19789  82.6132 303.3808 0016796  28.6248 331.5763 12.64914164658287,82.6132,0.0016796,12.64914164,303.3808,28.6248,331.5763
19789,COSMOS 1998,LEO,25013.81096118,1 19789U 89009E   25013.81096118  .00000021  00000-0  53259-4 0    10,2 19789  82.6132 303.0274 0016779  27.4090 332.7884 12.64914178658354,82.6132,0.0016779,12.64914178,303.0274,27.409,332.7884
19789,COSMOS 1998,LEO,25014.04824979,1 19789U 89009E   25014.04824979  .00000024  00000-0  68810-4 0  2306,2 19789  82.6132 302.8760 0016770  26.8849 333.3109 12.64914186658566,82.6132,0.001677,12.64914186,302.876,26.8849,333.3109
19789,COSMOS 1998,LEO,25014.20644222,1 19789U 89009E   25014.20644222  .00000028  00000-0  95307-4 0    16,2 19789  82.6132 302.7750 0016764  26.5400 333.6548 12.64914215658403,82.6132,0.0016764,12.64914215,302.775,26.54,333.6548
19789,COSMOS 1998,LEO,25014.83921189,1 19789U 89009E   25014.83921189  .00000030  00000-0  10268-3 0    10,2 19789  82.6132 302.3711 0016743  25.1569 335.0335 12.64914233658482,82.6132,0.0016743,12.64914233,302.3711,25.1569,335.0335
19789,COSMOS 1998,LEO,25015.31378915,1 19789U 89009E   25015.31378915  .00000035  00000-0  13045-3 0    18,2 19789  82.6132 302.0682 0016725  24.1061 336.0811 12.64914239658545,82.6132,0.0016725,12.64914239,302.0682,24.1061,336.0811
19789,COSMOS 1998,LEO,25015.86746259,1 19789U 89009E   25015.86746259  .00000035  00000-0  12997-3 0    13,2 19789  82.6132 301.7149 0016705  22.9011 337.2823 12.64914241658615,82.6132,0.0016705,12.64914241,301.7149,22.9011,337.2823
19789,COSMOS 1998,LEO,25016.26294359,1 19789U 89009E   25016.26294359  .00000038  00000-0  14881-3 0    14,2 19789  82.6132 301.4624 0016690  22.0264 338.1542 12.64914264658662,82.6132,0.001669,12.64914264,301.4624,22.0264,338.1542
19789,COSMOS 1998,LEO,25016.73752075,1 19789U 89009E   25016.73752075  .00000041  00000-0  16465-3 0    14,2 19789  82.6132 301.1596 0016672  20.9771 339.2002 12.64914313658722,82.6132,0.0016672,12.64914313,301.1596,20.9771,339.2002
19789,COSMOS 1998,LEO,25017.52848267,1 19789U 89009E   25017.52848267  .00000046  00000-0  18941-3 0    17,2 19789  82.6132 300.6548 0016646  19.2391 340.9326 12.64914362658826,82.6132,0.0016646,12.64914362,300.6548,19.2391,340.9326
19789,COSMOS 1998,LEO,25017.84486739,1 19789U 89009E   25017.84486739  .00000046  00000-0  18800-3 0    18,2 19789  82.6132 300.4529 0016633  18.5302 341.6393 12.64914397658867,82.6132,0.0016633,12.64914397,300.4529,18.5302,341.6393
19789,COSMOS 1998,LEO,25018.47763679,1 19789U 89009E   25018.47763679  .00000052  00000-0  22357-3 0    18,2 19789  82.6131 300.0490 0016607  17.1143 343.0506 12.64914477658948,82.6131,0.0016607,12.64914477,300.049,17.1143,343.0506
19789,COSMOS 1998,LEO,25018.79402149,1 19789U 89009E   25018.79402149  .00000049  00000-0  20928-3 0  2329,2 19789  82.6131 299.8471 0016595  16.4045 343.7582 12.64914509659163,82.6131,0.0016595,12.64914509,299.8471,16.4045,343.7582
19789,COSMOS 1998,LEO,25018.87311765,1 19789U 89009E   25018.87311765  .00000050  00000-0  21043-3 0    16,2 19789  82.6132 299.7966 0016591  16.2238 343.9382 12.64914519658991,82.6132,0.0016591,12.64914519,299.7966,16.2238,343.9382
19789,COSMOS 1998,LEO,25019.18950247,1 19789U 89009E   25019.18950247  .00000045  00000-0  18580-3 0    11,2 19789  82.6131 299.5947 0016586  15.5430 344.6169 12.64914496659038,82.6131,0.0016586,12.64914496,299.5947,15.543,344.6169
19789,COSMOS 1998,LEO,25019.82227184,1 19789U 89009E   25019.82227184  .00000044  00000-0  17772-3 0    10,2 19789  82.6131 299.1909 0016562  14.1344 346.0209 12.64914554659110,82.6131,0.0016562,12.64914554,299.1909,14.1344,346.0209
19789,COSMOS 1998,LEO,25020.29684889,1 19789U 89009E   25020.29684889  .00000042  00000-0  16949-3 0    15,2 19789  82.6130 298.8880 0016546  13.0619 347.0899 12.64914566659173,82.613,0.0016546,12.64914566,298.888,13.0619,347.0899
19789,COSMOS 1998,LEO,25020.85052202,1 19789U 89009E   25020.85052202  .00000042  00000-0  16979-3 0    18,2 19789  82.6130 298.5347 0016527  11.8257 348.3220 12.64914631659244,82.613,0.0016527,12.64914631,298.5347,11.8257,348.322
19789,COSMOS 1998,LEO,25021.16690669,1 19789U 89009E   25021.16690669  .00000041  00000-0  16499-3 0  2331,2 19789  82.6130 298.3328 0016513  11.1180 349.0275 12.64914647659463,82.613,0.0016513,12.64914647,298.3328,11.118,349.0275
19789,COSMOS 1998,LEO,25021.24600287,1 19789U 89009E   25021.24600287  .00000037  00000-0  14178-3 0    17,2 19789  82.6129 298.2823 0016510  10.9387 349.2061 12.64914633659294,82.6129,0.001651,12.64914633,298.2823,10.9387,349.2061
19789,COSMOS 1998,LEO,25021.87877217,1 19789U 89009E   25021.87877217  .00000030  00000-0  10350-3 0    16,2 19789  82.6129 297.8785 0016485   9.5173 350.6229 12.64914657659371,82.6129,0.0016485,12.64914657,297.8785,9.5173,350.6229
